[{"OBJECT_NAME":"OPTICUBE 04","OBJECT_ID":"2016-067D","EPOCH":"2026-03-09T12:14:28.758048","MEAN_MOTION":15.09188378,"ECCENTRICITY":0.00170901,"INCLINATION":98.0811,"RA_OF_ASC_NODE":275.5525,"ARG_OF_PERICENTER":94.6311,"MEAN_ANOMALY":265.6869,"EPHEMERIS_TYPE":0,"CLASSIFICATION_TYPE":"U","NORAD_CAT_ID":41851,"ELEMENT_SET_NO":999,"REV_AT_EPOCH":51013,"BSTAR":0.00024566739,"MEAN_MOTION_DOT":3.845e-5,"MEAN_MOTION_DDOT":0},{"OBJECT_NAME":"STARLINK-34654","OBJECT_ID":"2025-152S","EPOCH":"2026-03-09T20:00:42.388416","MEAN_MOTION":15.05650765,"ECCENTRICITY":0.00018125,"INCLINATION":97.6015,"RA_OF_ASC_NODE":285.7132,"ARG_OF_PERICENTER":90.5043,"MEAN_ANOMALY":269.6392,"EPHEMERIS_TYPE":0,"CLASSIFICATION_TYPE":"U","NORAD_CAT_ID":64858,"ELEMENT_SET_NO":999,"REV_AT_EPOCH":3544,"BSTAR":0.00020226638,"MEAN_MOTION_DOT":2.859e-5,"MEAN_MOTION_DDOT":0}]
